ICEYE-X33               
1 60548U 24149CJ  25060.16334287  .00009577  00000+0  83923-3 0  9995
2 60548  97.7248 138.9511 0004306 209.0645 151.0337 14.96869718 29324
ICEYE-X40               
1 60549U 24149CK  25059.62827071  .00004719  00000+0  42882-3 0  9995
2 60549  97.7232 138.2219 0004542 210.0044 150.0917 14.95713949 29239
SATELIOT_1              
1 60550U 24149CL  25060.17754998  .00007238  00000+0  66132-3 0  9999
2 60550  97.7178 138.6010 0006395 211.4722 148.6117 14.95312901 29316
BRO-14                  
1 60551U 24149CM  25059.76914243  .00004788  00000+0  45002-3 0  9994
2 60551  97.7295 138.3560 0005737 229.7575 130.3144 14.94366992 29249
SATELIOT_3              
1 60552U 24149CN  25059.19789569  .00007183  00000+0  65003-3 0  9998
2 60552  97.7238 137.9008 0007242 227.5981 132.4628 14.95690641 29173
BRO-15                  
1 60553U 24149CP  25059.79265038  .00002082  00000+0  19703-3 0  9994
2 60553  97.7223 138.3065 0007377 222.8210 137.2436 14.94705558 29250
UM5-RIBAT               
1 60554U 24149CQ  25059.80064541  .00008005  00000+0  70709-3 0  9997
2 60554  97.7182 138.5188 0008145 213.9868 146.0832 14.96595833 29272
UM5-EOSAT               
1 60555U 24149CR  25060.16862037  .00009912  00000+0  86554-3 0  9998
2 60555  97.7259 139.1182 0007524 216.3772 143.6939 14.96986454 29331
LASARSAT                
1 62391U 24247Q   25060.15002892  .00030323  00000+0  13409-2 0  9999
2 62391  44.9937 345.2239 0004764 172.4395 187.6558 15.21223059 10741
CROCUBE                 
1 62394U 24247T   25059.16681120  .00035164  00000+0  15538-2 0  9991
2 62394  44.9942 350.5583 0005119 165.6090 194.4937 15.21181778 10593
